{
    "links": {
        "self": "http://www.neowsapp.com/rest/v1/neo/3675093?api_key=iIulBulltgU6a56xZRHN4H3l9WmuAYTsLGpBGhQ2"
    },
    "id": "3675093",
    "neo_reference_id": "3675093",
    "name": "(2014 MA68)",
    "designation": "2014 MA68",
    "nasa_jpl_url": "http://ssd.jpl.nasa.gov/sbdb.cgi?sstr=3675093",
    "absolute_magnitude_h": 25.912,
    "estimated_diameter": {
        "kilometers": {
            "estimated_diameter_min": 0.0174644526,
            "estimated_diameter_max": 0.0390517031
        },
        "meters": {
            "estimated_diameter_min": 17.4644525518,
            "estimated_diameter_max": 39.0517030957
        },
        "miles": {
            "estimated_diameter_min": 0.0108519043,
            "estimated_diameter_max": 0.0242655958
        },
        "feet": {
            "estimated_diameter_min": 57.2980745101,
            "estimated_diameter_max": 128.1223895844
        }
    },
    "is_potentially_hazardous_asteroid": false,
    "close_approach_data": [
        {
            "close_approach_date": "2014-06-13",
            "close_approach_date_full": "2014-Jun-13 07:18",
            "epoch_date_close_approach": 1402643880000,
            "relative_velocity": {
                "kilometers_per_second": "5.8774889955",
                "kilometers_per_hour": "21158.960383646",
                "miles_per_hour": "13147.3551339382"
            },
            "miss_distance": {
                "astronomical": "0.0106244792",
                "lunar": "4.1329224088",
                "kilometers": "1589399.458179304",
                "miles": "987607.0273662352"
            },
            "orbiting_body": "Earth"
        }
    ],
    "orbital_data": {
        "orbit_id": "3",
        "orbit_determination_date": "2017-04-06 08:39:44",
        "first_observation_date": "2014-06-27",
        "last_observation_date": "2014-06-28",
        "data_arc_in_days": 1,
        "observations_used": 6,
        "orbit_uncertainty": "9",
        "minimum_orbit_intersection": ".0077561",
        "jupiter_tisserand_invariant": "4.426",
        "epoch_osculation": "2456836.5",
        "eccentricity": ".3484258887291338",
        "semi_major_axis": "1.525321320835009",
        "inclination": "1.437707755735427",
        "ascending_node_longitude": "57.85823670020614",
        "orbital_period": "688.0823820510177",
        "perihelion_distance": ".9938598840255746",
        "perihelion_argument": "180.2376869334035",
        "aphelion_distance": "2.056782757644443",
        "perihelion_time": "2456800.887747010515",
        "mean_anomaly": "18.63208739337266",
        "mean_motion": ".5231931660957828",
        "equinox": "J2000",
        "orbit_class": {
            "orbit_class_type": "APO",
            "orbit_class_description": "Near-Earth asteroid orbits which cross the Earth’s orbit similar to that of 1862 Apollo",
            "orbit_class_range": "a (semi-major axis) > 1.0 AU; q (perihelion) < 1.017 AU"
        }
    },
    "is_sentry_object": false
}